{
  "type": "FeatureCollection",
  "features": [
    {
      "type": "Feature",
      "properties": {
        "norad_id": 41948,
        "name": "CARTOSAT-2D",
        "group": "resource",
        "lat": -61.17959630296636,
        "lon": 66.41872973576895,
        "alt_km": 518.5287281014316,
        "timestamp": "2025-12-21T07:34:34.198005+00:00",
        "meta_object_name": "CARTOSAT-2D",
        "meta_object_id": "2017-008A",
        "meta_epoch": "2025-12-20T22:21:55.226880",
        "meta_mean_motion": 15.19328872,
        "meta_eccentricity": 0.00052984,
        "meta_inclination": 97.4382,
        "meta_ra_of_asc_node": 52.305,
        "meta_arg_of_pericenter": 137.3857,
        "meta_mean_anomaly": 222.779,
        "meta_ephemeris_type": 0,
        "meta_classification_type": "U",
        "meta_norad_cat_id": 41948,
        "meta_element_set_no": 999,
        "meta_rev_at_epoch": 49051,
        "meta_bstar": 6.9360543e-05,
        "meta_mean_motion_dot": 1.397e-05,
        "meta_mean_motion_ddot": 0,
        "tle_line1": "1 41948U 17008A   25354.93188920  .00001397  00000+0  69361-4 0  9999",
        "tle_line2": "2 41948  97.4382  52.3050 0005298 137.3857 222.7790 15.19328872490518"
      },
      "geometry": {
        "type": "Point",
        "coordinates": [
          66.41872973576895,
          -61.17959630296636
        ]
      }
    },
    {
      "type": "Feature",
      "properties": {
        "norad_id": 42063,
        "name": "SENTINEL-2B",
        "group": "resource",
        "lat": 52.126199727081854,
        "lon": 56.45973036484865,
        "alt_km": 783.4695805611891,
        "timestamp": "2025-12-21T07:34:34.198014+00:00",
        "meta_object_name": "SENTINEL-2B",
        "meta_object_id": "2017-013A",
        "meta_epoch": "2025-12-20T22:56:16.323936",
        "meta_mean_motion": 14.30813435,
        "meta_eccentricity": 0.00011964,
        "meta_inclination": 98.5714,
        "meta_ra_of_asc_node": 67.2867,
        "meta_arg_of_pericenter": 93.7209,
        "meta_mean_anomaly": 266.4111,
        "meta_ephemeris_type": 0,
        "meta_classification_type": "U",
        "meta_norad_cat_id": 42063,
        "meta_element_set_no": 999,
        "meta_rev_at_epoch": 45915,
        "meta_bstar": 3.4801366e-05,
        "meta_mean_motion_dot": 4.8e-07,
        "meta_mean_motion_ddot": 0,
        "tle_line1": "1 42063U 17013A   25354.95574449  .00000048  00000+0  34801-4 0  9994",
        "tle_line2": "2 42063  98.5714  67.2867 0001196  93.7209 266.4111 14.30813435459151"
      },
      "geometry": {
        "type": "Point",
        "coordinates": [
          56.45973036484865,
          52.126199727081854
        ]
      }
    },
    {
      "type": "Feature",
      "properties": {
        "norad_id": 42767,
        "name": "CARTOSAT-2E",
        "group": "resource",
        "lat": -26.818495658959144,
        "lon": -131.00526690215375,
        "alt_km": 512.1429167299812,
        "timestamp": "2025-12-21T07:34:34.198023+00:00",
        "meta_object_name": "CARTOSAT-2E",
        "meta_object_id": "2017-036C",
        "meta_epoch": "2025-12-20T22:45:52.003584",
        "meta_mean_motion": 15.19271026,
        "meta_eccentricity": 0.00025366,
        "meta_inclination": 97.4552,
        "meta_ra_of_asc_node": 52.4281,
        "meta_arg_of_pericenter": 196.1944,
        "meta_mean_anomaly": 163.921,
        "meta_ephemeris_type": 0,
        "meta_classification_type": "U",
        "meta_norad_cat_id": 42767,
        "meta_element_set_no": 999,
        "meta_rev_at_epoch": 47108,
        "meta_bstar": 0.00011280395,
        "meta_mean_motion_dot": 2.31e-05,
        "meta_mean_motion_ddot": 0,
        "tle_line1": "1 42767U 17036C   25354.94851856  .00002310  00000+0  11280-3 0  9998",
        "tle_line2": "2 42767  97.4552  52.4281 0002536 196.1944 163.9210 15.19271026471088"
      },
      "geometry": {
        "type": "Point",
        "coordinates": [
          -131.00526690215375,
          -26.818495658959144
        ]
      }
    },
    {
      "type": "Feature",
      "properties": {
        "norad_id": 42920,
        "name": "FORMOSAT-5",
        "group": "resource",
        "lat": -46.287312109955735,
        "lon": 78.18515693599213,
        "alt_km": 724.6198067423366,
        "timestamp": "2025-12-21T07:34:34.198032+00:00",
        "meta_object_name": "FORMOSAT-5",
        "meta_object_id": "2017-049A",
        "meta_epoch": "2025-12-20T21:51:36.810144",
        "meta_mean_motion": 14.50764868,
        "meta_eccentricity": 0.00098261,
        "meta_inclination": 98.2443,
        "meta_ra_of_asc_node": 69.0659,
        "meta_arg_of_pericenter": 273.716,
        "meta_mean_anomaly": 86.2911,
        "meta_ephemeris_type": 0,
        "meta_classification_type": "U",
        "meta_norad_cat_id": 42920,
        "meta_element_set_no": 999,
        "meta_rev_at_epoch": 44082,
        "meta_bstar": 4.6495808e-05,
        "meta_mean_motion_dot": 1.39e-06,
        "meta_mean_motion_ddot": 0,
        "tle_line1": "1 42920U 17049A   25354.91084271  .00000139  00000+0  46496-4 0  9994",
        "tle_line2": "2 42920  98.2443  69.0659 0009826 273.7160  86.2911 14.50764868440829"
      },
      "geometry": {
        "type": "Point",
        "coordinates": [
          78.18515693599213,
          -46.287312109955735
        ]
      }
    },
    {
      "type": "Feature",
      "properties": {
        "norad_id": 42969,
        "name": "SENTINEL-5P",
        "group": "resource",
        "lat": 74.77873914291835,
        "lon": 148.43325681011314,
        "alt_km": 819.1206354692185,
        "timestamp": "2025-12-21T07:34:34.198042+00:00",
        "meta_object_name": "SENTINEL-5P",
        "meta_object_id": "2017-064A",
        "meta_epoch": "2025-12-20T19:15:13.276800",
        "meta_mean_motion": 14.19519279,
        "meta_eccentricity": 0.00010111,
        "meta_inclination": 98.7796,
        "meta_ra_of_asc_node": 293.3152,
        "meta_arg_of_pericenter": 90.8145,
        "meta_mean_anomaly": 269.3147,
        "meta_ephemeris_type": 0,
        "meta_classification_type": "U",
        "meta_norad_cat_id": 42969,
        "meta_element_set_no": 999,
        "meta_rev_at_epoch": 42425,
        "meta_bstar": 3.9815891e-05,
        "meta_mean_motion_dot": 4e-07,
        "meta_mean_motion_ddot": 0,
        "tle_line1": "1 42969U 17064A   25354.80223700  .00000040  00000+0  39816-4 0  9993",
        "tle_line2": "2 42969  98.7796 293.3152 0001011  90.8145 269.3147 14.19519279424250"
      },
      "geometry": {
        "type": "Point",
        "coordinates": [
          148.43325681011314,
          74.77873914291835
        ]
      }
    },
    {
      "type": "Feature",
      "properties": {
        "norad_id": 42987,
        "name": "SKYSAT-C11",
        "group": "resource",
        "lat": -24.48771181887561,
        "lon": -50.37886398356853,
        "alt_km": 429.1250433112027,
        "timestamp": "2025-12-21T07:34:34.198051+00:00",
        "meta_object_name": "SKYSAT-C11",
        "meta_object_id": "2017-068A",
        "meta_epoch": "2025-12-20T21:23:06.896256",
        "meta_mean_motion": 15.4776797,
        "meta_eccentricity": 0.00011672,
        "meta_inclination": 97.4147,
        "meta_ra_of_asc_node": 132.5864,
        "meta_arg_of_pericenter": 98.9952,
        "meta_mean_anomaly": 261.1431,
        "meta_ephemeris_type": 0,
        "meta_classification_type": "U",
        "meta_norad_cat_id": 42987,
        "meta_element_set_no": 999,
        "meta_rev_at_epoch": 45557,
        "meta_bstar": 0.00031098507,
        "meta_mean_motion_dot": 0.00016039,
        "meta_mean_motion_ddot": 0,
        "tle_line1": "1 42987U 17068A   25354.89105204  .00016039  00000+0  31099-3 0  9993",
        "tle_line2": "2 42987  97.4147 132.5864 0001167  98.9952 261.1431 15.47767970455577"
      },
      "geometry": {
        "type": "Point",
        "coordinates": [
          -50.37886398356853,
          -24.48771181887561
        ]
      }
    },
    {
      "type": "Feature",
      "properties": {
        "norad_id": 42988,
        "name": "SKYSAT-C10",
        "group": "resource",
        "lat": 11.613696696767525,
        "lon": -52.27259751579423,
        "alt_km": 470.5314974831399,
        "timestamp": "2025-12-21T07:34:34.198061+00:00",
        "meta_object_name": "SKYSAT-C10",
        "meta_object_id": "2017-068B",
        "meta_epoch": "2025-12-20T21:26:27.283776",
        "meta_mean_motion": 15.32222185,
        "meta_eccentricity": 0.00053944,
        "meta_inclination": 97.4266,
        "meta_ra_of_asc_node": 125.7677,
        "meta_arg_of_pericenter": 81.245,
        "meta_mean_anomaly": 278.9403,
        "meta_ephemeris_type": 0,
        "meta_classification_type": "U",
        "meta_norad_cat_id": 42988,
        "meta_element_set_no": 999,
        "meta_rev_at_epoch": 45504,
        "meta_bstar": 0.0002443922,
        "meta_mean_motion_dot": 7.528e-05,
        "meta_mean_motion_ddot": 0,
        "tle_line1": "1 42988U 17068B   25354.89337134  .00007528  00000+0  24439-3 0  9996",
        "tle_line2": "2 42988  97.4266 125.7677 0005394  81.2450 278.9403 15.32222185455045"
      },
      "geometry": {
        "type": "Point",
        "coordinates": [
          -52.27259751579423,
          11.613696696767525
        ]
      }
    }
  ]
}